KUIPER-00215            
1 67779U 26030R   26065.59085706  .00037892  00000+0  11266-2 0  9992
2 67779  51.8846 234.3020 0010325  50.5384 309.6514 15.34333984  4612
KUIPER-00218            
1 67780U 26030S   26065.58073462  .00025501  00000+0  74686-3 0  9999
2 67780  51.8839 234.2341 0006686  42.4290 317.7212 15.35042981  4612
KUIPER-00220            
1 67781U 26030T   26065.58716321  .00038055  00000+0  11214-2 0  9993
2 67781  51.8820 234.2703 0008549  46.7276 313.4422 15.34631105  4613
KUIPER-00222            
1 67782U 26030U   26065.61115529  .00056158  00000+0  17572-2 0  9998
2 67782  51.8805 234.4200 0017189  54.9916 305.2680 15.32444345  4614
KUIPER-00223            
1 67783U 26030V   26065.59440660  .00021511  00000+0  65264-3 0  9990
2 67783  51.8836 234.3205 0012398  51.0076 309.2012 15.33981247  4616
KUIPER-00225            
1 67784U 26030W   26065.57123303  .00031703  00000+0  90417-3 0  9993
2 67784  51.8811 234.1681 0004415  30.7795 329.3450 15.35770194  4617
KUIPER-00226            
1 67785U 26030X   26065.55812755 -.00004183  00000+0 -12410-3 0  9999
2 67785  51.8804 234.8131 0019487  64.4258 295.8738 15.31115454  4603
KUIPER-00259            
1 67786U 26030Y   26065.58284904  .00025508  00000+0  74919-3 0  9996
2 67786  51.8816 234.2413 0008389  40.9776 319.1839 15.34941138  4619
KUIPER-00260            
1 67787U 26030Z   26065.56313917  .00027872  00000+0  78260-3 0  9991
2 67787  51.8794 234.1142 0001103  53.5302 306.5786 15.36332530  4528
KUIPER-00262            
1 67788U 26030AA  26065.55939070  .00009282  00000+0  26603-3 0  9994
2 67788  51.8806 234.0929 0000347 153.1492 206.9513 15.36611800  4612
KUIPER-00266            
1 67789U 26030AB  26065.56288283  .00020885  00000+0  69351-3 0  9998
2 67789  51.8799 234.8404 0022467  64.9051 295.4262 15.30945810  4605
KUIPER-00268            
1 67790U 26030AC  26065.56863914  .00036102  00000+0  10243-2 0  9994
2 67790  51.8841 234.1588 0002625  38.2589 321.8583 15.35873146  4613
KUIPER-00270            
1 67791U 26030AD  26065.58858203  .00035823  00000+0  10596-2 0  9992
2 67791  51.8813 234.2784 0010495  46.9331 313.2532 15.34524649  4616
KUIPER-00274            
1 67792U 26030AE  26065.61745147  .00018294  00000+0  61148-3 0  9992
2 67792  51.8821 234.4685 0018036  62.9747 297.3076 15.30909837  4613
KUIPER-00275            
1 67793U 26030AF  26065.58591066  .00038394  00000+0  11321-2 0  9998
2 67793  51.8845 234.2704 0009257  44.1699 316.0024 15.34599010  4617
KUIPER-00276            
1 67794U 26030AG  26065.55596830 -.00184658  00000+0 -61912-2 0  9998
2 67794  51.8810 234.8028 0018646  58.3109 301.9691 15.30922911  4608
