[{"OBJECT_NAME":"KUIPER-00215","OBJECT_ID":"2026-030R","EPOCH":"2026-03-06T14:10:50.049984","MEAN_MOTION":15.34333984,"ECCENTRICITY":0.00103252,"INCLINATION":51.8846,"RA_OF_ASC_NODE":234.302,"ARG_OF_PERICENTER":50.5384,"MEAN_ANOMALY":309.6514,"EPHEMERIS_TYPE":0,"CLASSIFICATION_TYPE":"U","NORAD_CAT_ID":67779,"ELEMENT_SET_NO":999,"REV_AT_EPOCH":461,"BSTAR":0.0011266182,"MEAN_MOTION_DOT":0.00037892,"MEAN_MOTION_DDOT":0},{"OBJECT_NAME":"KUIPER-00218","OBJECT_ID":"2026-030S","EPOCH":"2026-03-06T13:56:15.471168","MEAN_MOTION":15.35042981,"ECCENTRICITY":0.00066865,"INCLINATION":51.8839,"RA_OF_ASC_NODE":234.2341,"ARG_OF_PERICENTER":42.429,"MEAN_ANOMALY":317.7212,"EPHEMERIS_TYPE":0,"CLASSIFICATION_TYPE":"U","NORAD_CAT_ID":67780,"ELEMENT_SET_NO":999,"REV_AT_EPOCH":461,"BSTAR":0.00074685729,"MEAN_MOTION_DOT":0.00025501,"MEAN_MOTION_DDOT":0},{"OBJECT_NAME":"KUIPER-00220","OBJECT_ID":"2026-030T","EPOCH":"2026-03-06T14:05:30.901344","MEAN_MOTION":15.34631105,"ECCENTRICITY":0.00085496,"INCLINATION":51.882,"RA_OF_ASC_NODE":234.2703,"ARG_OF_PERICENTER":46.7276,"MEAN_ANOMALY":313.4422,"EPHEMERIS_TYPE":0,"CLASSIFICATION_TYPE":"U","NORAD_CAT_ID":67781,"ELEMENT_SET_NO":999,"REV_AT_EPOCH":461,"BSTAR":0.0011213641,"MEAN_MOTION_DOT":0.00038055,"MEAN_MOTION_DDOT":0},{"OBJECT_NAME":"KUIPER-00222","OBJECT_ID":"2026-030U","EPOCH":"2026-03-06T14:40:03.817056","MEAN_MOTION":15.32444345,"ECCENTRICITY":0.00171899,"INCLINATION":51.8805,"RA_OF_ASC_NODE":234.42,"ARG_OF_PERICENTER":54.9916,"MEAN_ANOMALY":305.268,"EPHEMERIS_TYPE":0,"CLASSIFICATION_TYPE":"U","NORAD_CAT_ID":67782,"ELEMENT_SET_NO":999,"REV_AT_EPOCH":461,"BSTAR":0.0017571794,"MEAN_MOTION_DOT":0.00056158,"MEAN_MOTION_DDOT":0},{"OBJECT_NAME":"KUIPER-00223","OBJECT_ID":"2026-030V","EPOCH":"2026-03-06T14:15:56.730240","MEAN_MOTION":15.33981247,"ECCENTRICITY":0.00123984,"INCLINATION":51.8836,"RA_OF_ASC_NODE":234.3205,"ARG_OF_PERICENTER":51.0076,"MEAN_ANOMALY":309.2012,"EPHEMERIS_TYPE":0,"CLASSIFICATION_TYPE":"U","NORAD_CAT_ID":67783,"ELEMENT_SET_NO":999,"REV_AT_EPOCH":461,"BSTAR":0.00065264433,"MEAN_MOTION_DOT":0.00021511,"MEAN_MOTION_DDOT":0},{"OBJECT_NAME":"KUIPER-00225","OBJECT_ID":"2026-030W","EPOCH":"2026-03-06T13:42:34.533792","MEAN_MOTION":15.35770194,"ECCENTRICITY":0.00044154,"INCLINATION":51.8811,"RA_OF_ASC_NODE":234.1681,"ARG_OF_PERICENTER":30.7795,"MEAN_ANOMALY":329.345,"EPHEMERIS_TYPE":0,"CLASSIFICATION_TYPE":"U","NORAD_CAT_ID":67784,"ELEMENT_SET_NO":999,"REV_AT_EPOCH":461,"BSTAR":0.00090416917,"MEAN_MOTION_DOT":0.00031703,"MEAN_MOTION_DDOT":0},{"OBJECT_NAME":"KUIPER-00226","OBJECT_ID":"2026-030X","EPOCH":"2026-03-06T13:23:42.220320","MEAN_MOTION":15.31115454,"ECCENTRICITY":0.00194872,"INCLINATION":51.8804,"RA_OF_ASC_NODE":234.8131,"ARG_OF_PERICENTER":64.4258,"MEAN_ANOMALY":295.8738,"EPHEMERIS_TYPE":0,"CLASSIFICATION_TYPE":"U","NORAD_CAT_ID":67785,"ELEMENT_SET_NO":999,"REV_AT_EPOCH":460,"BSTAR":-0.0001240994,"MEAN_MOTION_DOT":-4.183e-5,"MEAN_MOTION_DDOT":0},{"OBJECT_NAME":"KUIPER-00259","OBJECT_ID":"2026-030Y","EPOCH":"2026-03-06T13:59:18.157056","MEAN_MOTION":15.34941138,"ECCENTRICITY":0.00083898,"INCLINATION":51.8816,"RA_OF_ASC_NODE":234.2413,"ARG_OF_PERICENTER":40.9776,"MEAN_ANOMALY":319.1839,"EPHEMERIS_TYPE":0,"CLASSIFICATION_TYPE":"U","NORAD_CAT_ID":67786,"ELEMENT_SET_NO":999,"REV_AT_EPOCH":461,"BSTAR":0.00074919076,"MEAN_MOTION_DOT":0.00025508,"MEAN_MOTION_DDOT":0},{"OBJECT_NAME":"KUIPER-00260","OBJECT_ID":"2026-030Z","EPOCH":"2026-03-06T13:30:55.224288","MEAN_MOTION":15.3633253,"ECCENTRICITY":0.00011035,"INCLINATION":51.8794,"RA_OF_ASC_NODE":234.1142,"ARG_OF_PERICENTER":53.5302,"MEAN_ANOMALY":306.5786,"EPHEMERIS_TYPE":0,"CLASSIFICATION_TYPE":"U","NORAD_CAT_ID":67787,"ELEMENT_SET_NO":999,"REV_AT_EPOCH":452,"BSTAR":0.00078259851,"MEAN_MOTION_DOT":0.00027872,"MEAN_MOTION_DDOT":0},{"OBJECT_NAME":"KUIPER-00262","OBJECT_ID":"2026-030AA","EPOCH":"2026-03-06T13:25:31.356480","MEAN_MOTION":15.366118,"ECCENTRICITY":3.473e-5,"INCLINATION":51.8806,"RA_OF_ASC_NODE":234.0929,"ARG_OF_PERICENTER":153.1492,"MEAN_ANOMALY":206.9513,"EPHEMERIS_TYPE":0,"CLASSIFICATION_TYPE":"U","NORAD_CAT_ID":67788,"ELEMENT_SET_NO":999,"REV_AT_EPOCH":461,"BSTAR":0.00026603383,"MEAN_MOTION_DOT":9.282e-5,"MEAN_MOTION_DDOT":0},{"OBJECT_NAME":"KUIPER-00266","OBJECT_ID":"2026-030AB","EPOCH":"2026-03-06T13:30:33.076512","MEAN_MOTION":15.3094581,"ECCENTRICITY":0.00224679,"INCLINATION":51.8799,"RA_OF_ASC_NODE":234.8404,"ARG_OF_PERICENTER":64.9051,"MEAN_ANOMALY":295.4262,"EPHEMERIS_TYPE":0,"CLASSIFICATION_TYPE":"U","NORAD_CAT_ID":67789,"ELEMENT_SET_NO":999,"REV_AT_EPOCH":460,"BSTAR":0.0006935085,"MEAN_MOTION_DOT":0.00020885,"MEAN_MOTION_DDOT":0},{"OBJECT_NAME":"KUIPER-00268","OBJECT_ID":"2026-030AC","EPOCH":"2026-03-06T13:38:50.421696","MEAN_MOTION":15.35873146,"ECCENTRICITY":0.00026258,"INCLINATION":51.8841,"RA_OF_ASC_NODE":234.1588,"ARG_OF_PERICENTER":38.2589,"MEAN_ANOMALY":321.8583,"EPHEMERIS_TYPE":0,"CLASSIFICATION_TYPE":"U","NORAD_CAT_ID":67790,"ELEMENT_SET_NO":999,"REV_AT_EPOCH":461,"BSTAR":0.0010243105,"MEAN_MOTION_DOT":0.00036102,"MEAN_MOTION_DDOT":0},{"OBJECT_NAME":"KUIPER-00270","OBJECT_ID":"2026-030AD","EPOCH":"2026-03-06T14:07:33.487392","MEAN_MOTION":15.34524649,"ECCENTRICITY":0.00104959,"INCLINATION":51.8813,"RA_OF_ASC_NODE":234.2784,"ARG_OF_PERICENTER":46.9331,"MEAN_ANOMALY":313.2532,"EPHEMERIS_TYPE":0,"CLASSIFICATION_TYPE":"U","NORAD_CAT_ID":67791,"ELEMENT_SET_NO":999,"REV_AT_EPOCH":461,"BSTAR":0.001059551,"MEAN_MOTION_DOT":0.00035823,"MEAN_MOTION_DDOT":0},{"OBJECT_NAME":"KUIPER-00274","OBJECT_ID":"2026-030AE","EPOCH":"2026-03-06T14:49:07.807008","MEAN_MOTION":15.30909837,"ECCENTRICITY":0.00180367,"INCLINATION":51.8821,"RA_OF_ASC_NODE":234.4685,"ARG_OF_PERICENTER":62.9747,"MEAN_ANOMALY":297.3076,"EPHEMERIS_TYPE":0,"CLASSIFICATION_TYPE":"U","NORAD_CAT_ID":67792,"ELEMENT_SET_NO":999,"REV_AT_EPOCH":461,"BSTAR":0.00061148375,"MEAN_MOTION_DOT":0.00018294,"MEAN_MOTION_DDOT":0},{"OBJECT_NAME":"KUIPER-00275","OBJECT_ID":"2026-030AF","EPOCH":"2026-03-06T14:03:42.681024","MEAN_MOTION":15.3459901,"ECCENTRICITY":0.00092571,"INCLINATION":51.8845,"RA_OF_ASC_NODE":234.2704,"ARG_OF_PERICENTER":44.1699,"MEAN_ANOMALY":316.0024,"EPHEMERIS_TYPE":0,"CLASSIFICATION_TYPE":"U","NORAD_CAT_ID":67793,"ELEMENT_SET_NO":999,"REV_AT_EPOCH":461,"BSTAR":0.0011321429,"MEAN_MOTION_DOT":0.00038394,"MEAN_MOTION_DDOT":0},{"OBJECT_NAME":"KUIPER-00276","OBJECT_ID":"2026-030AG","EPOCH":"2026-03-06T13:20:35.661120","MEAN_MOTION":15.30922911,"ECCENTRICITY":0.00186466,"INCLINATION":51.881,"RA_OF_ASC_NODE":234.8028,"ARG_OF_PERICENTER":58.3109,"MEAN_ANOMALY":301.9691,"EPHEMERIS_TYPE":0,"CLASSIFICATION_TYPE":"U","NORAD_CAT_ID":67794,"ELEMENT_SET_NO":999,"REV_AT_EPOCH":460,"BSTAR":-0.006191235,"MEAN_MOTION_DOT":-0.00184658,"MEAN_MOTION_DDOT":0}]
